FENGYUN 3C              
1 39260U 13052A   23153.19243808  .00000099  00000+0  70949-4 0  9990
2 39260  98.4285 168.1174 0010841 353.1806   6.9220 14.16040127501401
CASSIOPE                
1 39265U 13055A   23152.89445764  .00016677  00000+0  40653-3 0  9996
2 39265  80.9610 253.7094 0571141 354.1776   5.2949 14.51460003502766
ZACUBE-1 (TSHEPISOSAT)  
1 39417U 13066B   23152.46401653  .00003893  00000+0  45204-3 0  9992
2 39417  97.6840 114.6829 0054354 341.1399  18.7802 14.84887280514862
CINEMA-3 (KHUSAT-2)     
1 39426U 13066L   23152.38474292  .00001095  00000+0  17107-3 0  9995
2 39426  97.8284  83.0050 0100434 196.7690 163.0189 14.71475368510820
TRITON-1                
1 39427U 13066M   23153.06919629  .00001707  00000+0  26290-3 0  9993
2 39427  97.8358  79.5043 0106957 225.5960 133.6455 14.70947266510326
DELFI-N3XT              
1 39428U 13066N   23152.61417616  .00003391  00000+0  49353-3 0  9999
2 39428  97.8339  78.0037 0109276 239.0525 119.9908 14.72517236509844
GOMX-1                  
1 39430U 13066Q   23153.06041593  .00002789  00000+0  48844-3 0  9993
2 39430  97.7822  45.0812 0146376  21.8439 338.8918 14.61767420507325
BRITE-PL1 (LEM)         
1 39431U 13066R   23152.85227561  .00000785  00000+0  17509-3 0  9999
2 39431  97.6793 340.0810 0198856 224.9974 133.4962 14.47935512502919
ICUBE-1                 
1 39432U 13066S   23152.90015502  .00004627  00000+0  42052-3 0  9996
2 39432  97.4827 144.4810 0029410 170.7185 189.4586 14.95377175516852
HUMSAT-D                
1 39433U 13066T   23152.53807684  .00007621  00000+0  62708-3 0  9993
2 39433  97.4498 152.1139 0028962 141.1091 219.2223 14.99048503517413
VELOX-PII               
1 39438U 13066Y   23153.11508436  .00003449  00000+0  43525-3 0  9996
2 39438  97.7411 107.0230 0067966  38.5299 322.0737 14.80931704513843
FIRST-MOVE              
1 39439U 13066Z   23152.16792704  .00008838  00000+0  90694-3 0  9990
2 39439  97.6788 118.1875 0055639 332.2710  27.5544 14.89481305513843
CUBEBUG-2 (LO-74)       
1 39440U 13066AA  23152.61250488  .00003645  00000+0  47240-3 0  9990
2 39440  97.7718 101.8747 0077294  78.1603 282.8264 14.79309349511854
NEE-02 KRYSAOR          
1 39441U 13066AB  23152.63558746  .00002169  00000+0  29641-3 0  9996
2 39441  97.7829  98.7509 0079997  94.2652 266.7705 14.77368548511555
FUNCUBE-1 (AO-73)       
1 39444U 13066AE  23152.44471458  .00005236  00000+0  58243-3 0  9990
2 39444  97.6703 117.1969 0052103 326.5764  33.2167 14.86568533513309
HINCUBE                 
1 39445U 13066AF  23152.48045706  .00004452  00000+0  49936-3 0  9996
2 39445  97.6717 116.9998 0052313 329.1421  30.6723 14.86305352513246
UWE-3                   
1 39446U 13066AG  23152.42912153  .00004198  00000+0  51614-3 0  9993
2 39446  97.7337 107.8702 0066618  31.9656 328.5572 14.81959471512689
AIST-1 (RS-41)          
1 39492U 13078C   23153.05522940  .00001588  00000+0  16311-3 0  9993
2 39492  82.4186 261.8515 0019694  30.9283 329.3091 14.89647187511795
SPROUT                  
1 39770U 14029E   23152.57109058  .00021210  00000+0  16324-2 0  9993
2 39770  97.9824 279.3491 0006150 355.2324   4.8840 15.01683458489813
UNISAT-6                
1 40012U 14033C   23152.81334076  .00002914  00000+0  41208-3 0  9996
2 40012  97.6717 327.6259 0057105 105.9680 254.7833 14.76722573481501
BUGSAT-1 (TITA)         
1 40014U 14033E   23152.94373186  .00004385  00000+0  36030-3 0  9998
2 40014  98.1408 171.2265 0028124 325.6858  34.2547 14.99433344488435
DUCHIFAT-1              
1 40021U 14033M   23151.85426205  .00007468  00000+0  64106-3 0  9996
2 40021  98.0577 115.2888 0009963 340.9217  19.1630 14.97746569486748
NANOSATC-BR1            
1 40024U 14033Q   23152.39978614  .00006057  00000+0  54825-3 0  9995
2 40024  98.0263 107.1316 0010166 343.3296  16.7589 14.95752149486059
QB50P1                  
1 40025U 14033R   23152.59439947  .00005419  00000+0  51598-3 0  9994
2 40025  97.9960  99.0769 0010906 356.0395   4.0736 14.93790565485815
DTUSAT-2                
1 40030U 14033W   23152.59898796  .00004479  00000+0  43658-3 0  9994
2 40030  97.9675  92.9393 0010540 353.4117   6.6962 14.92954552485676
QB50P2                  
1 40032U 14033Y   23152.37373588  .00004720  00000+0  45980-3 0  9998
2 40032  97.9670  92.7286 0010452 354.8844   5.2266 14.92952861485613
POLYITAN-1              
1 40042U 14033AJ  23152.60514446  .00007086  00000+0  65931-3 0  9991
2 40042  98.0077 100.9288 0012388 346.8551  13.2344 14.94578351485714
TIGRISAT                
1 40043U 14033AK  23153.07230680  .00002342  00000+0  33396-3 0  9999
2 40043  97.6641 328.8708 0059246 102.5693 258.2153 14.76456953481485
AISAT                   
1 40054U 14034B   23153.07143638  .00005359  00000+0  66273-3 0  9999
2 40054  98.3672 344.5509 0010028 274.4318  85.5748 14.83195750481227
CANX-4                  
1 40055U 14034C   23153.04408349  .00001176  00000+0  17669-3 0  9998
2 40055  98.3894 327.4267 0013152 330.4890  29.5574 14.76492590480312
CANX-5                  
1 40056U 14034D   23153.11869753  .00001208  00000+0  18121-3 0  9997
2 40056  98.3897 327.4905 0013148 330.4517  29.5947 14.76496164480322
VELOX-I                 
1 40057U 14034E   23153.00918614  .00003933  00000+0  50494-3 0  9993
2 40057  98.3721 345.3635 0008770 294.0611  65.9682 14.81811887481187
METEOR-M 2              
1 40069U 14037A   23153.12962652  .00000085  00000+0  58407-4 0  9991
2 40069  98.4233 159.8047 0006441  36.9941 323.1680 14.20780818461510
DX1                     
1 40071U 14037C   23153.07707596  .00001359  00000+0  17465-3 0  9995
2 40071  98.3624  43.4162 0006757 275.0573  84.9867 14.82941960481122
UKUBE-1                 
1 40074U 14037F   23152.98907120  .00004101  00000+0  45131-3 0  9991
2 40074  98.3471  56.6798 0002707 220.8029 139.2984 14.88183423481998
FIREBIRD 3              
1 40377U 15003B   23152.41025050  .00164350  00000+0  13238-2 0  9997
2 40377  99.0748 106.7647 0038159 256.1180 103.5830 15.69424408462173
FIREBIRD 4              
1 40378U 15003C   23153.11565465  .00153442  00000+0  12298-2 0  9990
2 40378  99.0768 108.0018 0038404 252.5602 107.1455 15.69560876462291
GRIFEX                  
1 40379U 15003D   23153.03666937  .00040269  00000+0  89743-3 0  9990
2 40379  99.0784  86.1498 0080895 324.6186  34.9702 15.40023512461052
CP10 (EXOCUBE)          
1 40380U 15003E   23152.32232567  .00030445  00000+0  85586-3 0  9997
2 40380  99.0849  75.3001 0098068   0.4734 359.6578 15.31695650460308
DEORBITSAIL             
1 40719U 15032E   23152.88689034  .00004237  00000+0  54727-3 0  9994
2 40719  97.7370  24.2244 0013601 313.1962  46.8114 14.81402924425550
XW-2C                   
1 40906U 15049H   23153.07714784  .00011587  00000+0  45117-3 0  9992
2 40906  97.4931 160.1683 0010925 205.1822 154.8885 15.26097569426096
XW-2D                   
1 40907U 15049J   23153.04935569  .00014568  00000+0  53534-3 0  9990
2 40907  97.4910 160.6324 0010279 197.0343 163.0552 15.27966321426174
LILACSAT-2              
1 40908U 15049K   23153.07871471  .00006001  00000+0  28488-3 0  9998
2 40908  97.5240 156.1801 0012407 238.1380 121.8647 15.19560613425503
XW-2E                   
1 40909U 15049L   23153.02735534  .00029421  00000+0  79730-3 0  9990
2 40909  97.4524 166.7016 0009992 161.8614 198.2988 15.37557231426813
XW-2F                   
1 40910U 15049M   23153.01856694  .00028708  00000+0  79414-3 0  9998
2 40910  97.4616 165.9268 0010651 165.2711 194.8846 15.36916599426558
XW-2B                   
1 40911U 15049N   23152.97766857  .00014503  00000+0  53655-3 0  9991
2 40911  97.4890 161.0069 0010192 199.0172 161.0688 15.27745641426047
KAITUO 1B               
1 40912U 15049P   23153.03453910  .00038750  00000+0  88191-3 0  9996
2 40912  97.4169 170.5290 0011347 131.1211 229.1017 15.42801265427272
LAPAN-A2                
1 40931U 15052B   23151.55009665  .00001097  00000+0  62525-4 0  9998
2 40931   5.9984 205.2696 0012576  58.1371 301.9979 14.77223057414892
LQSAT                   
1 40958U 15057A   23153.10765145  .00000661  00000+0  10790-3 0  9999
2 40958  97.7026 187.8133 0016313 273.0106  86.9236 14.73897288411460
ATHENOXAT 1             
1 41168U 15077C   23152.86426860  .00144448  00000+0  19758-2 0  9999
2 41168  14.9882 341.5049 0001591 155.7887 204.2514 15.55492281413926
GALASSIA                
1 41170U 15077E   23152.21270867  .00046121  00000+0  11486-2 0  9994
2 41170  14.9886 354.6583 0005901 167.8480 192.1987 15.38281093413593
VELOX-II                
1 41171U 15077F   23152.20390079  .00021575  00000+0  76060-3 0  9998
2 41171  14.9901  94.1197 0006584 319.7317  40.2518 15.26820963412813
CHUBUSAT-2              
1 41338U 16012B   23152.81035046  .00003970  00000+0  27481-3 0  9992
2 41338  31.0036 316.1099 0012438  24.7554 335.3678 15.03890734400063
CHUBUSAT-3              
1 41339U 16012C   23152.80365942  .00003547  00000+0  24578-3 0  9997
2 41339  31.0100 313.2379 0012329  32.0045 328.1338 15.03756655400067
HORYU-4                 
1 41340U 16012D   23153.03070305  .00007106  00000+0  44778-3 0  9990
2 41340  31.0044 280.8002 0011719  90.2473 269.9507 15.07709823400431
OUFTI-1                 
1 41458U 16025C   23152.54636853  .00037978  00000+0  10274-2 0  9998
2 41458  98.1845 354.7072 0102616 145.7023 215.0900 15.32354113390653
E-ST@R-II               
1 41459U 16025D   23153.17088440  .00030716  00000+0  90485-3 0  9998
2 41459  98.1872 352.9592 0109494 151.1739 209.5609 15.29154609390600
AAUSAT 4                
1 41460U 16025E   23153.07955736  .00109249  00000+0  15526-2 0  9990
2 41460  98.1616   4.9670 0062976 108.1502 252.6620 15.53673322391420
AIST-2D (RS-48)         
1 41465U 16026B   23153.11858438  .00024648  00000+0  34059-3 0  9994
2 41465  97.0000  24.6959 0004704 294.2098  65.8666 15.57130956397628
